[{"OBJECT_NAME":"SDA_1676","OBJECT_ID":"2025-230N","EPOCH":"2026-03-09T23:10:57.103680","MEAN_MOTION":13.84599753,"ECCENTRICITY":0.00032308,"INCLINATION":81.3008,"RA_OF_ASC_NODE":303.8061,"ARG_OF_PERICENTER":59.6386,"MEAN_ANOMALY":300.509,"EPHEMERIS_TYPE":0,"CLASSIFICATION_TYPE":"U","NORAD_CAT_ID":65986,"ELEMENT_SET_NO":999,"REV_AT_EPOCH":2007,"BSTAR":0.00022843479,"MEAN_MOTION_DOT":2.68e-6,"MEAN_MOTION_DDOT":0},{"OBJECT_NAME":"FENGYUN 1C DEB","OBJECT_ID":"1999-025BSP","EPOCH":"2026-03-09T03:23:13.741728","MEAN_MOTION":14.05921858,"ECCENTRICITY":0.01092943,"INCLINATION":99.0556,"RA_OF_ASC_NODE":135.1077,"ARG_OF_PERICENTER":77.9,"MEAN_ANOMALY":312.5316,"EPHEMERIS_TYPE":0,"CLASSIFICATION_TYPE":"U","NORAD_CAT_ID":31383,"ELEMENT_SET_NO":999,"REV_AT_EPOCH":96583,"BSTAR":0.00065742884,"MEAN_MOTION_DOT":1.092e-5,"MEAN_MOTION_DDOT":0}]
